{
  "norad_id": 63463,
  "name": "STARLINK-33696",
  "history": [
    {
      "epoch": "2026-04-11T15:00:48.860928Z",
      "apogee_km": 483.4179044370421,
      "perigee_km": 482.66866355003003,
      "latitude_deg": -1.1480375314707927e-05,
      "longitude_deg": 8.74423682112614,
      "height_km": 482.7500297864148,
      "semi_major_axis_km": 6861.180283993536,
      "eccentricity": 5.46e-05,
      "inclination_deg": 43.0039,
      "raan_deg": 73.7902,
      "arg_perigee_deg": 280.7126,
      "mean_anomaly_deg": 79.3664,
      "mean_motion_rev_day": 15.27581941
    },
    {
      "epoch": "2026-04-13T06:14:43.643904Z",
      "apogee_km": 483.71490862925475,
      "perigee_km": 482.3554359750342,
      "latitude_deg": 1.9328733817482746e-05,
      "longitude_deg": 129.42401010297152,
      "height_km": 482.7412949862876,
      "semi_major_axis_km": 6861.172172302144,
      "eccentricity": 9.907e-05,
      "inclination_deg": 43.003,
      "raan_deg": 64.5594,
      "arg_perigee_deg": 275.9588,
      "mean_anomaly_deg": 84.1151,
      "mean_motion_rev_day": 15.2758465
    },
    {
      "epoch": "2026-04-14T21:28:38.507232Z",
      "apogee_km": 483.3543238016491,
      "perigee_km": 482.7299564998957,
      "latitude_deg": 1.3197766836843373e-05,
      "longitude_deg": -109.8972889965373,
      "height_km": 482.78455665209447,
      "semi_major_axis_km": 6861.179140150773,
      "eccentricity": 4.55e-05,
      "inclination_deg": 43.0032,
      "raan_deg": 55.3279,
      "arg_perigee_deg": 276.2153,
      "mean_anomaly_deg": 83.8647,
      "mean_motion_rev_day": 15.27582323
    },
    {
      "epoch": "2026-04-15T21:00:59.158944Z",
      "apogee_km": 483.991204381603,
      "perigee_km": 482.0741935677088,
      "latitude_deg": 2.0694824049909918e-05,
      "longitude_deg": -109.49034313769432,
      "height_km": 482.6905229506466,
      "semi_major_axis_km": 6861.169698974655,
      "eccentricity": 0.0001397,
      "inclination_deg": 42.9985,
      "raan_deg": 49.7876,
      "arg_perigee_deg": 277.1145,
      "mean_anomaly_deg": 82.9548,
      "mean_motion_rev_day": 15.27585476
    },
    {
      "epoch": "2026-04-16T12:42:33.170112Z",
      "apogee_km": 483.3521542715962,
      "perigee_km": 482.73327586129744,
      "latitude_deg": -3.737275401331621e-05,
      "longitude_deg": 10.781403376013053,
      "height_km": 482.72095456372966,
      "semi_major_axis_km": 6861.179715066447,
      "eccentricity": 4.51e-05,
      "inclination_deg": 43.0005,
      "raan_deg": 46.0956,
      "arg_perigee_deg": 288.3985,
      "mean_anomaly_deg": 71.6817,
      "mean_motion_rev_day": 15.27582131
    },
    {
      "epoch": "2026-04-17T20:05:41.806752Z",
      "apogee_km": 483.2323219949367,
      "perigee_km": 482.9713204701766,
      "latitude_deg": 4.771447685570389e-05,
      "longitude_deg": -108.67725625444727,
      "height_km": 482.9979541140342,
      "semi_major_axis_km": 6861.238821232556,
      "eccentricity": 1.902e-05,
      "inclination_deg": 43.0004,
      "raan_deg": 38.7118,
      "arg_perigee_deg": 202.4299,
      "mean_anomaly_deg": 157.6545,
      "mean_motion_rev_day": 15.27562392
    },
    {
      "epoch": "2026-04-18T19:38:02.988096Z",
      "apogee_km": 483.60274567739543,
      "perigee_km": 482.3348133293439,
      "latitude_deg": -2.4217916929216767e-05,
      "longitude_deg": -108.27260967456088,
      "height_km": 482.85399977117436,
      "semi_major_axis_km": 6861.105779503369,
      "eccentricity": 9.24e-05,
      "inclination_deg": 43.0026,
      "raan_deg": 33.1715,
      "arg_perigee_deg": 260.1304,
      "mean_anomaly_deg": 99.9443,
      "mean_motion_rev_day": 15.27606823
    },
    {
      "epoch": "2026-04-19T11:19:35.948640Z",
      "apogee_km": 483.2851942061998,
      "perigee_km": 482.5946954224737,
      "latitude_deg": -5.355139060527852e-06,
      "longitude_deg": 12.002206619948465,
      "height_km": 482.94852010315844,
      "semi_major_axis_km": 6861.0769448143365,
      "eccentricity": 5.032e-05,
      "inclination_deg": 43.0025,
      "raan_deg": 29.4781,
      "arg_perigee_deg": 227.6557,
      "mean_anomaly_deg": 132.4252,
      "mean_motion_rev_day": 15.27616453
    },
    {
      "epoch": "2026-04-20T10:51:56.793024Z",
      "apogee_km": 483.4962657272026,
      "perigee_km": 482.6172095855345,
      "latitude_deg": 4.798268952335402e-05,
      "longitude_deg": 12.410292788693239,
      "height_km": 482.80617703032857,
      "semi_major_axis_km": 6861.193737656368,
      "eccentricity": 6.406e-05,
      "inclination_deg": 42.9991,
      "raan_deg": 23.9397,
      "arg_perigee_deg": 273.4554,
      "mean_anomaly_deg": 86.6225,
      "mean_motion_rev_day": 15.27577448
    },
    {
      "epoch": "2026-04-21T10:24:17.354880Z",
      "apogee_km": 483.6523028150532,
      "perigee_km": 482.3578797481114,
      "latitude_deg": -9.637099424914973e-06,
      "longitude_deg": 12.81794036844356,
      "height_km": 482.7127392698257,
      "semi_major_axis_km": 6861.142091281582,
      "eccentricity": 9.433e-05,
      "inclination_deg": 43.0021,
      "raan_deg": 18.3998,
      "arg_perigee_deg": 276.1111,
      "mean_anomaly_deg": 83.9633,
      "mean_motion_rev_day": 15.27594696
    },
    {
      "epoch": "2026-04-22T02:05:50.589312Z",
      "apogee_km": 483.6960586349396,
      "perigee_km": 482.2316252712335,
      "latitude_deg": -9.694967172582354e-06,
      "longitude_deg": 133.09219106052225,
      "height_km": 482.61203954370546,
      "semi_major_axis_km": 6861.100841953086,
      "eccentricity": 0.00010672,
      "inclination_deg": 42.9981,
      "raan_deg": 14.707,
      "arg_perigee_deg": 280.0686,
      "mean_anomaly_deg": 80.0045,
      "mean_motion_rev_day": 15.27608472
    },
    {
      "epoch": "2026-04-23T01:38:11.695488Z",
      "apogee_km": 483.84243923507074,
      "perigee_km": 482.1797086108363,
      "latitude_deg": 5.6790588630195927e-05,
      "longitude_deg": 133.5002967823486,
      "height_km": 482.903264337784,
      "semi_major_axis_km": 6861.148073922954,
      "eccentricity": 0.00012117,
      "inclination_deg": 43.0037,
      "raan_deg": 9.1697,
      "arg_perigee_deg": 262.0303,
      "mean_anomaly_deg": 98.0412,
      "mean_motion_rev_day": 15.27592698
    },
    {
      "epoch": "2026-04-24T16:52:05.045952Z",
      "apogee_km": 484.35419647037816,
      "perigee_km": 481.5644747003298,
      "latitude_deg": -3.7509499951318507e-05,
      "longitude_deg": -105.81577955151536,
      "height_km": 482.8561400095887,
      "semi_major_axis_km": 6861.096335585354,
      "eccentricity": 0.0002033,
      "inclination_deg": 43.0017,
      "raan_deg": 359.9372,
      "arg_perigee_deg": 265.0879,
      "mean_anomaly_deg": 94.974,
      "mean_motion_rev_day": 15.27609977
    },
    {
      "epoch": "2026-04-25T08:33:39.508128Z",
      "apogee_km": 483.9025400929577,
      "perigee_km": 482.19822114761155,
      "latitude_deg": -1.1765805445973857e-05,
      "longitude_deg": 14.454670457388506,
      "height_km": 482.92008040959394,
      "semi_major_axis_km": 6861.187380620285,
      "eccentricity": 0.0001242,
      "inclination_deg": 43.002,
      "raan_deg": 356.2457,
      "arg_perigee_deg": 263.7396,
      "mean_anomaly_deg": 96.3314,
      "mean_motion_rev_day": 15.27579571
    },
    {
      "epoch": "2026-04-26T15:56:46.675104Z",
      "apogee_km": 483.75053417313393,
      "perigee_km": 482.1049764022255,
      "latitude_deg": -2.6825805805972263e-05,
      "longitude_deg": -104.9985571334545,
      "height_km": 482.661378859495,
      "semi_major_axis_km": 6861.06475528768,
      "eccentricity": 0.00011992,
      "inclination_deg": 43.0012,
      "raan_deg": 348.8613,
      "arg_perigee_deg": 272.999,
      "mean_anomaly_deg": 87.0724,
      "mean_motion_rev_day": 15.27620524
    },
    {
      "epoch": "2026-04-27T07:38:21.609024Z",
      "apogee_km": 483.6969276035561,
      "perigee_km": 482.457792290149,
      "latitude_deg": -6.151100082605129e-05,
      "longitude_deg": 15.269458187366284,
      "height_km": 482.5440783967944,
      "semi_major_axis_km": 6861.214359946852,
      "eccentricity": 9.03e-05,
      "inclination_deg": 43.0003,
      "raan_deg": 345.1694,
      "arg_perigee_deg": 299.973,
      "mean_anomaly_deg": 60.1031,
      "mean_motion_rev_day": 15.27570561
    },
    {
      "epoch": "2026-04-28T21:18:07.826976Z",
      "apogee_km": 483.7271232799676,
      "perigee_km": 482.3301899522812,
      "latitude_deg": 1.207383040443449e-07,
      "longitude_deg": 159.91519249448683,
      "height_km": 482.81500603752363,
      "semi_major_axis_km": 6861.165656616125,
      "eccentricity": 0.0001018,
      "inclination_deg": 43.0026,
      "raan_deg": 336.3044,
      "arg_perigee_deg": 269.2054,
      "mean_anomaly_deg": 90.8681,
      "mean_motion_rev_day": 15.27586826
    },
    {
      "epoch": "2026-04-29T20:50:28.394016Z",
      "apogee_km": 483.5654001027924,
      "perigee_km": 482.4250799245028,
      "latitude_deg": -4.663778213078351e-05,
      "longitude_deg": 160.32503264525906,
      "height_km": 482.81624018314704,
      "semi_major_axis_km": 6861.132240013648,
      "eccentricity": 8.31e-05,
      "inclination_deg": 43.0,
      "raan_deg": 330.7667,
      "arg_perigee_deg": 265.4937,
      "mean_anomaly_deg": 94.5819,
      "mean_motion_rev_day": 15.27597986
    },
    {
      "epoch": "2026-04-30T14:06:11.570688Z",
      "apogee_km": 483.75316118209594,
      "perigee_km": 482.2227186529972,
      "latitude_deg": -1.2112449331915885e-05,
      "longitude_deg": -103.37395846074071,
      "height_km": 482.7037548569149,
      "semi_major_axis_km": 6861.124939917546,
      "eccentricity": 0.00011153,
      "inclination_deg": 42.9993,
      "raan_deg": 326.7065,
      "arg_perigee_deg": 274.5401,
      "mean_anomaly_deg": 85.5323,
      "mean_motion_rev_day": 15.27600424
    }
  ]
}